{"Buildings": {"0166": [{"buildingName": "State Farm Center", "streetAddress": "1800 S. FIRST", "city": "CHAMPAIGN", "state": "IL", "zipcode": "61820", "latitude": "40.0962567", "longitude": "-88.2359334"}], "0292": [{"buildingName": "Vet Med Teaching Hospital", "streetAddress": "1008 W HAZELWOOD DR.", "city": "URBANA", "state": "IL", "zipcode": "61801", "latitude": "40.092007", "longitude": "-88.2224066"}], "0006": [{"buildingName": "Armory", "streetAddress": "505 E. ARMORY", "city": "CHAMPAIGN", "state": "IL", "zipcode": "61820", "latitude": "40.1047515", "longitude": "-88.2319563"}], "0360": [{"buildingName": "Atkins Tennis Center", "streetAddress": "1800 S. WRIGHT", "city": "URBANA", "state": "IL", "zipcode": "61801", "latitude": "40.0963133", "longitude": "-88.2286636"}], "0382": [{"buildingName": "Atrel 1611 Titan", "streetAddress": "1611 TITAN DRIVE", "city": "RANTOUL", "state": "IL", "zipcode": "61866", "latitude": "40.2861501", "longitude": "-88.1270473"}], "1161": [{"buildingName": "South Farms Isolation Work Area", "streetAddress": "4900 S. RACE STREET", "city": "URBANA", "state": "IL", "zipcode": "61802", "latitude": "40.0568278", "longitude": "-88.2086847"}], "0001": [{"buildingName": "Davenport Hall", "streetAddress": "607 S. MATHEWS", "city": "URBANA", "state": "IL", "zipcode": "61801", "latitude": "40.107192", "longitude": "-88.2260299"}], "0002": [{"buildingName": "Art Annex East 2", "streetAddress": "1301 S. GOODWIN", "city": "URBANA", "state": "IL", "zipcode": "61801", "latitude": "40.1020234", "longitude": "-88.2246959"}], "0003": [{"buildingName": "Mckinley Health Clinic", "streetAddress": "1109 S. LINCOLN AVE", "city": "URBANA", "state": "IL", "zipcode": "61801", "latitude": "40.1026786", "longitude": "-88.2199549"}], "0004": [{"buildingName": "Harding Band Building", "streetAddress": "1103 S. SIXTH", "city": "CHAMPAIGN", "state": "IL", "zipcode": "61820", "latitude": "40.1046237", "longitude": "-88.2304534"}], "0005": [{"buildingName": "Kenney Gym Annex", "streetAddress": "1400 W. SPRINGFIELD", "city": "URBANA", "state": "IL", "zipcode": "61801", "latitude": "40.112725", "longitude": "-88.2283473"}], "0007": [{"buildingName": "Foellinger Auditoruim", "streetAddress": "709 S. MATHEWS", "city": "URBANA", "state": "IL", "zipcode": "61801", "latitude": "40.1059876", "longitude": "-88.227196"}], "0008": [{"buildingName": "Agricultural Engineering Sciences Building", "streetAddress": "1304 W. PENNSYLVANIA", "city": "URBANA", "state": "IL", "zipcode": "61801", "latitude": "40.1005794", "longitude": "-88.2267831"}], "0010": [{"buildingName": "Chem Annex", "streetAddress": "601 S. MATHEWS", "city": "URBANA", "state": "IL", "zipcode": "61801", "latitude": "40.1081761", "longitude": "-88.2255393"}], "0011": [{"buildingName": "Kiln House", "streetAddress": "107 S. GOODWIN", "city": "URBANA", "state": "IL", "zipcode": "61801", "latitude": "40.1116241", "longitude": "-88.2248637"}], "0012": [{"buildingName": "Noyes", "streetAddress": "505 S. MATHEWS", "city": "URBANA", "state": "IL", "zipcode": "61801", "latitude": "40.1084065", "longitude": "-88.2259762"}], "0013": [{"buildingName": "Talbot Lab", "streetAddress": "104 S. WRIGHT", "city": "URBANA", "state": "IL", "zipcode": "61801", "latitude": "40.1118749", "longitude": "-88.2282634"}], "0014": [{"buildingName": "Ice Arena", "streetAddress": "406 E. ARMORY", "city": "CHAMPAIGN", "state": "IL", "zipcode": "61820", "latitude": "40.1058636", "longitude": "-88.2325143"}], "0015": [{"buildingName": "Engineering Hall", "streetAddress": "1308 W. GREEN", "city": "URBANA", "state": "IL", "zipcode": "61801", "latitude": "40.1108517", "longitude": "-88.226974"}], "0017": [{"buildingName": "Advanced Computation Building", "streetAddress": "1011 W. SPRINGFIELD Ave", "city": "URBANA", "state": "IL", "zipcode": "61801", "latitude": "40.1127746", "longitude": "-88.2221532"}], "0018": [{"buildingName": "Art Annex", "streetAddress": "1208 PEABODY DR.", "city": "URBANA", "state": "IL", "zipcode": "61801", "latitude": "40.1015222", "longitude": "-88.2231396"}], "0020": [{"buildingName": "Physiology Research Lab", "streetAddress": "301 E. HAZELWOOD", "city": "CHAMPAIGN", "state": "IL", "zipcode": "61820", "latitude": "40.090846", "longitude": "-88.2331216"}], "0021": [{"buildingName": "Kenney Gym", "streetAddress": "1406 W. SPRINGFIELD Ave", "city": "URBANA", "state": "IL", "zipcode": "61801", "latitude": "40.1127248", "longitude": "-88.2283543"}], "0023": [{"buildingName": "Illini Union", "streetAddress": "1401 W. GREEN", "city": "URBANA", "state": "IL", "zipcode": "61801", "latitude": "40.1092461", "longitude": "-88.2272585"}], "0024": [{"buildingName": "Newmark", "streetAddress": "205 N. MATHEWS", "city": "URBANA", "state": "IL", "zipcode": "61801", "latitude": "40.1143679", "longitude": "-88.2260782"}], "0025": [{"buildingName": "Harker Hall", "streetAddress": "1305 W. GREEN", "city": "URBANA", "state": "IL", "zipcode": "61801", "latitude": "40.108977", "longitude": "-88.226668"}], "0026": [{"buildingName": "Altgeld Hall", "streetAddress": "1409 W. GREEN", "city": "URBANA", "state": "IL", "zipcode": "61801", "latitude": "40.1093349", "longitude": "-88.2283586"}], "0027": [{"buildingName": "Lincoln Hall", "streetAddress": "702 S. WRIGHT", "city": "URBANA", "state": "IL", "zipcode": "61801", "latitude": "40.106643", "longitude": "-88.2283797"}], "0029": [{"buildingName": "Mechanical Engineering Laboratory", "streetAddress": "105 S. MATHEWS", "city": "URBANA", "state": "IL", "zipcode": "61801", "latitude": "40.1116671", "longitude": "-88.2259866"}], "0032": [{"buildingName": "Natural History Building", "streetAddress": "1301 W. GREEN", "city": "URBANA", "state": "IL", "zipcode": "61801", "latitude": "40.1094734", "longitude": "-88.226039"}], "0033": [{"buildingName": "Observatory", "streetAddress": "901 S. MATHEWS", "city": "URBANA", "state": "IL", "zipcode": "61801", "latitude": "40.1056794", "longitude": "-88.2254573"}], "0034": [{"buildingName": "Material Sciences Engineering Building", "streetAddress": "1304 W. GREEN", "city": "URBANA", "state": "IL", "zipcode": "61801", "latitude": "40.1107574", "longitude": "-88.2258743"}], "0037": [{"buildingName": "Everitt", "streetAddress": "1406 W. GREEN", "city": "URBANA", "state": "IL", "zipcode": "61801", "latitude": "40.1103895", "longitude": "-88.2277388"}], "0039": [{"buildingName": "Music Building", "streetAddress": "1114 W. NEVADA", "city": "URBANA", "state": "IL", "zipcode": "61801", "latitude": "40.1065954", "longitude": "-88.2228678"}], "0040": [{"buildingName": "Stock Pavilion", "streetAddress": "1402 W. PENNSYLVANIA", "city": "URBANA", "state": "IL", "zipcode": "61801", "latitude": "40.1005748", "longitude": "-88.2273142"}], "0041": [{"buildingName": "Main Library", "streetAddress": "1408 W. GREGORY", "city": "URBANA", "state": "IL", "zipcode": "61801", "latitude": "40.1047044", "longitude": "-88.2290104"}], "0042": [{"buildingName": "Transportation Building", "streetAddress": "104 S. MATHEWS", "city": "URBANA", "state": "IL", "zipcode": "61801", "latitude": "40.1117059", "longitude": "-88.2252078"}], "0043": [{"buildingName": "Gregory Hall", "streetAddress": "810 S. WRIGHT", "city": "URBANA", "state": "IL", "zipcode": "61801", "latitude": "40.1057779", "longitude": "-88.2283902"}], "0044": [{"buildingName": "English Building", "streetAddress": "608 S. WRIGHT", "city": "URBANA", "state": "IL", "zipcode": "61801", "latitude": "40.107588", "longitude": "-88.2282468"}], "0046": [{"buildingName": "Henry Administration Building", "streetAddress": "506 S. WRIGHT", "city": "URBANA", "state": "IL", "zipcode": "61801", "latitude": "40.1083969", "longitude": "-88.228276"}], "0048": [{"buildingName": "Nuclear Radiations Laboratory", "streetAddress": "201 S. GOODWIN", "city": "URBANA", "state": "IL", "zipcode": "61801", "latitude": "40.1109", "longitude": "-88.2239319"}], "0050": [{"buildingName": "Architecture Building", "streetAddress": "608 E. LORADO TAFT", "city": "CHAMPAIGN", "state": "IL", "zipcode": "61820", "latitude": "40.1029552", "longitude": "-88.2302207"}], "0052": [{"buildingName": "Krannert Center for the Performing Arts", "streetAddress": "500 S. GOODWIN", "city": "URBANA", "state": "IL", "zipcode": "61801", "latitude": "40.108013", "longitude": "-88.222747"}], "0054": [{"buildingName": "David Kinley Hall", "streetAddress": "1407 W. GREGORY", "city": "URBANA", "state": "IL", "zipcode": "61801", "latitude": "40.1038176", "longitude": "-88.2283623"}], "0055": [{"buildingName": "Ceramics Building", "streetAddress": "105 S. GOODWIN", "city": "URBANA", "state": "IL", "zipcode": "61801", "latitude": "40.1115409", "longitude": "-88.224247"}], "0056": [{"buildingName": "Vivarium", "streetAddress": "606 E. HEALY", "city": "CHAMPAIGN", "state": "IL", "zipcode": "61820", "latitude": "40.111639", "longitude": "-88.230128"}], "0058": [{"buildingName": "Huff Hall", "streetAddress": "1206 S. FOURTH", "city": "CHAMPAIGN", "state": "IL", "zipcode": "61820", "latitude": "40.1035395", "longitude": "-88.2329358"}], "0059": [{"buildingName": "Richard D and Anne Marie Irwin Doctoral Study Hall", "streetAddress": "607 E. GREGORY", "city": "CHAMPAIGN", "state": "IL", "zipcode": "61820", "latitude": "40.1041548", "longitude": "-88.2294338"}], "0060": [{"buildingName": "Smith Music Hall", "streetAddress": "805 S. MATHEWS", "city": "URBANA", "state": "IL", "zipcode": "61801", "latitude": "40.105707", "longitude": "-88.2259925"}], "0061": [{"buildingName": "University High School", "streetAddress": "1212 W. SPRINGFIELD", "city": "URBANA", "state": "IL", "zipcode": "61801", "latitude": "40.1130426", "longitude": "-88.2252253"}], "0062": [{"buildingName": "Childrens Development Laboratory", "streetAddress": "1105 W. NEVADA", "city": "URBANA", "state": "IL", "zipcode": "61801", "latitude": "40.1056347", "longitude": "-88.2219233"}], "0063": [{"buildingName": "University High Gym", "streetAddress": "1207 W. STOUGHTON", "city": "URBANA", "state": "IL", "zipcode": "61801", "latitude": "40.1135377", "longitude": "-88.2238115"}], "0064": [{"buildingName": "Freer Hall", "streetAddress": "906 S. GOODWIN", "city": "URBANA", "state": "IL", "zipcode": "61801", "latitude": "40.1050018", "longitude": "-88.2238265"}], "0065": [{"buildingName": "Illini Hall", "streetAddress": "725 S. WRIGHT", "city": "CHAMPAIGN", "state": "IL", "zipcode": "61820", "latitude": "40.1094621", "longitude": "-88.2290929"}], "0066": [{"buildingName": "Seitz Materials Research Laboratory", "streetAddress": "104 S. GOODWIN", "city": "URBANA", "state": "IL", "zipcode": "61801", "latitude": "40.1116732", "longitude": "-88.2230775"}], "0067": [{"buildingName": "Loomis Laboratory", "streetAddress": "1110 W. GREEN ST.", "city": "URBANA", "state": "IL", "zipcode": "61801", "latitude": "40.1107779", "longitude": "-88.2232185"}], "0068": [{"buildingName": "Horticulture Field Lab", "streetAddress": "1707 S. ORCHARD", "city": "URBANA", "state": "IL", "zipcode": "61801", "latitude": "40.0964981", "longitude": "-88.2148106"}], "0069": [{"buildingName": "Mumford Hall", "streetAddress": "1301 W. GREGORY", "city": "URBANA", "state": "IL", "zipcode": "61801", "latitude": "40.103626", "longitude": "-88.22599"}], "0070": [{"buildingName": "Chemical and Life Sciences Laboratory", "streetAddress": "601 S. GOODWIN", "city": "URBANA", "state": "IL", "zipcode": "61801", "latitude": "40.1085386", "longitude": "-88.2238901"}], "0071": [{"buildingName": "Student Arcade Building", "streetAddress": "713 S. WRIGHT", "city": "CHAMPAIGN", "state": "IL", "zipcode": "61820", "latitude": "40.1097781", "longitude": "-88.2288724"}], "0072": [{"buildingName": "Memorial Stadium", "streetAddress": "1400 S. FIRST", "city": "CHAMPAIGN", "state": "IL", "zipcode": "61820", "latitude": "40.0981252", "longitude": "-88.2385708"}], "0073": [{"buildingName": "Agricultural Bioprocess Laboratory", "streetAddress": "1302 W. PENNSYLVANIA", "city": "URBANA", "state": "IL", "zipcode": "61801", "latitude": "40.1005807", "longitude": "-88.2266816"}], "0074": [{"buildingName": "IGPA", "streetAddress": "1007 W. NEVADA", "city": "URBANA", "state": "IL", "zipcode": "61801", "latitude": "40.1056346", "longitude": "-88.2213018"}], "0075": [{"buildingName": "Childrens Research Center", "streetAddress": "51 E. GERTY", "city": "CHAMPAIGN", "state": "IL", "zipcode": "61820", "latitude": "40.0870846", "longitude": "-88.2408158"}], "0076": [{"buildingName": "Psychology", "streetAddress": "603 E. DANIEL", "city": "CHAMPAIGN", "state": "IL", "zipcode": "61820", "latitude": "40.1076581", "longitude": "-88.2299484"}], "0077": [{"buildingName": "Plant Services NE", "streetAddress": "1005 W. WESTERN", "city": "URBANA", "state": "IL", "zipcode": "61801", "latitude": "40.1122205", "longitude": "-88.2185687"}], "0078": [{"buildingName": "Snyder Hall", "streetAddress": "206 E. PEABODY", "city": "CHAMPAIGN", "state": "IL", "zipcode": "61820", "latitude": "40.1022227", "longitude": "-88.235119"}], "0079": [{"buildingName": "Scott Hall", "streetAddress": "202 E. PEABODY", "city": "CHAMPAIGN", "state": "IL", "zipcode": "61820", "latitude": "40.101539", "longitude": "-88.2365193"}], "0080": [{"buildingName": "Weston Hall", "streetAddress": "204 E. PEABODY", "city": "CHAMPAIGN", "state": "IL", "zipcode": "61820", "latitude": "40.1014693", "longitude": "-88.236524"}], "0084": [{"buildingName": "Hopkins Hall", "streetAddress": "1208 S. FIRST", "city": "CHAMPAIGN", "state": "IL", "zipcode": "61820", "latitude": "40.1028261", "longitude": "-88.2386158"}], "0086": [{"buildingName": "Lundgren", "streetAddress": "1201 S. FOURTH", "city": "CHAMPAIGN", "state": "IL", "zipcode": "61820", "latitude": "40.103893", "longitude": "-88.234141"}], "0087": [{"buildingName": "Clark", "streetAddress": "1203 S. FOURTH", "city": "CHAMPAIGN", "state": "IL", "zipcode": "61820", "latitude": "40.1035014", "longitude": "-88.2337811"}], "0088": [{"buildingName": "Barton", "streetAddress": "1205 S. FOURTH", "city": "CHAMPAIGN", "state": "IL", "zipcode": "61820", "latitude": "40.1041102", "longitude": "-88.2334248"}], "0089": [{"buildingName": "Flagg Hall", "streetAddress": "1207 S. FOURTH", "city": "CHAMPAIGN", "state": "IL", "zipcode": "61820", "latitude": "40.1041029", "longitude": "-88.2334244"}], "0090": [{"buildingName": "Noble Hall", "streetAddress": "1209 S. FOURTH", "city": "CHAMPAIGN", "state": "IL", "zipcode": "61820", "latitude": "40.1040956", "longitude": "-88.2334241"}], "0091": [{"buildingName": "Van Doren", "streetAddress": "1215 S. FOURTH", "city": "CHAMPAIGN", "state": "IL", "zipcode": "61820", "latitude": "40.1017494", "longitude": "-88.2336206"}], "0092": [{"buildingName": "Taft", "streetAddress": "1213 S. FOURTH", "city": "CHAMPAIGN", "state": "IL", "zipcode": "61820", "latitude": "40.1018322", "longitude": "-88.2336184"}], "0094": [{"buildingName": "Alice Campbell Alumni Center", "streetAddress": "601 S LINCOLN", "city": "URBANA", "state": "IL", "zipcode": "61801", "latitude": "40.1079833", "longitude": "-88.2198733"}], "0095": [{"buildingName": "Superconductivity Laboratory", "streetAddress": "100 S. GOODWIN", "city": "URBANA", "state": "IL", "zipcode": "61801", "latitude": "40.1120308", "longitude": "-88.2239507"}], "0099": [{"buildingName": "Undergrad Library", "streetAddress": "1402 W. GREGORY", "city": "URBANA", "state": "IL", "zipcode": "61801", "latitude": "40.1047959", "longitude": "-88.2272315"}], "0100": [{"buildingName": "Presidents House", "streetAddress": "711 West Florida Avenue", "city": "URBANA", "state": "IL", "zipcode": "61801", "latitude": "40.0982183", "longitude": "-88.2160905"}], "0101": [{"buildingName": "Blaisdell Hall", "streetAddress": "901 W. PENNSYLVANIA", "city": "URBANA", "state": "IL", "zipcode": "61801", "latitude": "40.1006273", "longitude": "-88.219146"}], "0102": [{"buildingName": "Saunders Hall", "streetAddress": "902 COLLEGE COURT", "city": "URBANA", "state": "IL", "zipcode": "61801", "latitude": "40.099987", "longitude": "-88.220301"}], "0103": [{"buildingName": "Babcock Hall", "streetAddress": "1002 COLLEGE COURT", "city": "URBANA", "state": "IL", "zipcode": "61801", "latitude": "40.0994516", "longitude": "-88.2212698"}], "0104": [{"buildingName": "Carr Hall", "streetAddress": "1001 W. PENNSYLVANIA", "city": "URBANA", "state": "IL", "zipcode": "61801", "latitude": "40.1006485", "longitude": "-88.2203904"}], "0105": [{"buildingName": "PAR Food Building", "streetAddress": "906 W. COLLEGE CT.", "city": "URBANA", "state": "IL", "zipcode": "61801", "latitude": "40.0997028", "longitude": "-88.2209334"}], "0106": [{"buildingName": "Illini Union Bookstore", "streetAddress": "807/809 S. WRIGHT", "city": "CHAMPAIGN", "state": "IL", "zipcode": "61820", "latitude": "40.1082994", "longitude": "-88.2292483"}], "0108": [{"buildingName": "Computer Applications Building", "streetAddress": "605 E. SPRINGFIELD", "city": "CHAMPAIGN", "state": "IL", "zipcode": "61820", "latitude": "40.1127035", "longitude": "-88.2298826"}], "0109": [{"buildingName": "Natural Resources Building", "streetAddress": "607 E. PEABODY", "city": "CHAMPAIGN", "state": "IL", "zipcode": "61820", "latitude": "40.1012925", "longitude": "-88.2298277"}], "0110": [{"buildingName": "Nuclear Physics Lab", "streetAddress": "25 E. STADIUM DR.", "city": "CHAMPAIGN", "state": "IL", "zipcode": "61820", "latitude": "40.1027001", "longitude": "-88.2417761"}], "0111": [{"buildingName": "Busey Hall", "streetAddress": "1111 W. NEVADA", "city": "URBANA", "state": "IL", "zipcode": "61801", "latitude": "40.1056901", "longitude": "-88.2229307"}], "0112": [{"buildingName": "Mechanical Engineering Building", "streetAddress": "1206 W. GREEN", "city": "URBANA", "state": "IL", "zipcode": "61801", "latitude": "40.1105373", "longitude": "-88.2247958"}], "0115": [{"buildingName": "Evans Hall", "streetAddress": "1115 W. NEVADA", "city": "URBANA", "state": "IL", "zipcode": "61801", "latitude": "40.1056142", "longitude": "-88.2233472"}], "0116": [{"buildingName": "Roger Adams Laboratory", "streetAddress": "600 S. MATHEWS", "city": "URBANA", "state": "IL", "zipcode": "61801", "latitude": "40.1078402", "longitude": "-88.2247521"}], "0117": [{"buildingName": "Nuclear Engineering Lab", "streetAddress": "103 S. GOODWIN", "city": "URBANA", "state": "IL", "zipcode": "61801", "latitude": "40.1120308", "longitude": "-88.2239507"}], "0118": [{"buildingName": "Career Fair ARC", "streetAddress": "201 E. PEABODY", "city": "CHAMPAIGN", "state": "IL", "zipcode": "61820", "latitude": "40.1008028", "longitude": "-88.23598"}], "0120": [{"buildingName": "Abbott Power Plant", "streetAddress": "1117 S. OAK", "city": "CHAMPAIGN", "state": "IL", "zipcode": "61820", "latitude": "40.1048561", "longitude": "-88.2415202"}], "0122": [{"buildingName": "Radio Transmitter Station", "streetAddress": "2520 S. FIRST ST. RD.", "city": "CHAMPAIGN", "state": "IL", "zipcode": "61820", "latitude": "40.0832391", "longitude": "-88.2383907"}], "0124": [{"buildingName": "National Soybean Research Center", "streetAddress": "1101 W. PEABODY", "city": "URBANA", "state": "IL", "zipcode": "61801", "latitude": "40.1010646", "longitude": "-88.2225715"}], "0126": [{"buildingName": "Levis", "streetAddress": "919 W. ILLINOIS", "city": "URBANA", "state": "IL", "zipcode": "61801", "latitude": "40.108876", "longitude": "-88.221288"}], "0128": [{"buildingName": "Geological Survey Laboratory", "streetAddress": "1116 S. OAK", "city": "CHAMPAIGN", "state": "IL", "zipcode": "61820", "latitude": "40.1051453", "longitude": "-88.2415229"}], "0130": [{"buildingName": "Coble Hall", "streetAddress": "801 S. WRIGHT", "city": "CHAMPAIGN", "state": "IL", "zipcode": "61820", "latitude": "40.108683", "longitude": "-88.2289445"}], "0131": [{"buildingName": "Turner Hall Greenhouses", "streetAddress": "1102 S. GOODWIN", "city": "URBANA", "state": "IL", "zipcode": "61801", "latitude": "40.102654", "longitude": "-88.223798"}], "0133": [{"buildingName": "Natural Resources Garage", "streetAddress": "608 E. PENNSYLVANIA", "city": "CHAMPAIGN", "state": "IL", "zipcode": "61820", "latitude": "40.100836", "longitude": "-88.2286152"}], "0134": [{"buildingName": "Natural Resources Building Greenhouse", "streetAddress": "614 E. PENNSYLVANIA", "city": "CHAMPAIGN", "state": "IL", "zipcode": "61820", "latitude": "40.1005571", "longitude": "-88.2298807"}], "0136": [{"buildingName": "Goodwin", "streetAddress": "300 S. GOODWIN", "city": "URBANA", "state": "IL", "zipcode": "61801", "latitude": "40.1101424", "longitude": "-88.2237624"}], "0137": [{"buildingName": "Green", "streetAddress": "1107 W. GREEN", "city": "URBANA", "state": "IL", "zipcode": "61801", "latitude": "40.110157", "longitude": "-88.2233963"}], "0138": [{"buildingName": "Burrill Hall", "streetAddress": "407 S. GOODWIN", "city": "URBANA", "state": "IL", "zipcode": "61801", "latitude": "40.1092674", "longitude": "-88.2248786"}], "0140": [{"buildingName": "Illinois Simulator Lab", "streetAddress": "2100 S. GOODWIN", "city": "URBANA", "state": "IL", "zipcode": "61801", "latitude": "40.090471", "longitude": "-88.223691"}], "0141": [{"buildingName": "LAR Hall", "streetAddress": "1005 S. LINCOLN", "city": "URBANA", "state": "IL", "zipcode": "61801", "latitude": "40.1041252", "longitude": "-88.2203608"}], "0142": [{"buildingName": "Allen Hall", "streetAddress": "1005 W. GREGORY", "city": "URBANA", "state": "IL", "zipcode": "61801", "latitude": "40.10386", "longitude": "-88.221545"}], "0144": [{"buildingName": "Dalkey Press", "streetAddress": "1805 S. WRIGHT STREET", "city": "CHAMPAIGN", "state": "IL", "zipcode": "61820", "latitude": "40.0933141", "longitude": "-88.2291669"}], "0146": [{"buildingName": "1205 Nevada", "streetAddress": "1205 W. NEVADA", "city": "URBANA", "state": "IL", "zipcode": "61801", "latitude": "40.1056774", "longitude": "-88.224689"}], "0148": [{"buildingName": "Coordinated Sciences Laboratory", "streetAddress": "1308 W. MAIN ST.", "city": "URBANA", "state": "IL", "zipcode": "61801", "latitude": "40.1149239", "longitude": "-88.2267461"}], "0151": [{"buildingName": "1204 W Nevada", "streetAddress": "1204 W. NEVADA", "city": "URBANA", "state": "IL", "zipcode": "61801", "latitude": "40.1061885", "longitude": "-88.2242952"}], "0152": [{"buildingName": "Hydrosystems Laboratory", "streetAddress": "205 N. MATHEWS", "city": "URBANA", "state": "IL", "zipcode": "61801", "latitude": "40.1143679", "longitude": "-88.2260782"}], "0154": [{"buildingName": "Personnel Services Building", "streetAddress": "52 E. GREGORY", "city": "CHAMPAIGN", "state": "IL", "zipcode": "61820", "latitude": "40.1040918", "longitude": "-88.2387066"}], "0156": [{"buildingName": "Law Building", "streetAddress": "504 E. PENNSYLVANIA AVE.", "city": "CHAMPAIGN", "state": "IL", "zipcode": "61820", "latitude": "40.100781", "longitude": "-88.231734"}], "0157": [{"buildingName": "1201 W Nevada", "streetAddress": "1201 W. NEVADA", "city": "URBANA", "state": "IL", "zipcode": "61801", "latitude": "40.1057059", "longitude": "-88.2241024"}], "0158": [{"buildingName": "Bevier", "streetAddress": "905 W. GOODWIN", "city": "URBANA", "state": "IL", "zipcode": "61801", "latitude": "40.104724", "longitude": "-88.2241965"}], "0159": [{"buildingName": "Wohlers", "streetAddress": "1206 S. SIXTH", "city": "CHAMPAIGN", "state": "IL", "zipcode": "61820", "latitude": "40.1035102", "longitude": "-88.2300657"}], "0160": [{"buildingName": "Education Building", "streetAddress": "1310 S. SIXTH ST.", "city": "CHAMPAIGN", "state": "IL", "zipcode": "61820", "latitude": "40.1019565", "longitude": "-88.2296348"}], "0161": [{"buildingName": "1401 S Maryland", "streetAddress": "1401 S. MARYLAND", "city": "URBANA", "state": "IL", "zipcode": "61801", "latitude": "40.1002661", "longitude": "-88.2228459"}], "0162": [{"buildingName": "Engineering Senior Design Laboratory", "streetAddress": "1013 W. WESTERN", "city": "URBANA", "state": "IL", "zipcode": "61801", "latitude": "40.1115328", "longitude": "-88.2214808"}], "0165": [{"buildingName": "Animal Sciences Laboratory", "streetAddress": "1207 W. GREGORY", "city": "URBANA", "state": "IL", "zipcode": "61801", "latitude": "40.1040174", "longitude": "-88.2247062"}], "0167": [{"buildingName": "Colonel Wolfe", "streetAddress": "403 E. HEALY", "city": "CHAMPAIGN", "state": "IL", "zipcode": "61820", "latitude": "40.1114745", "longitude": "-88.2329879"}], "0169": [{"buildingName": "Burnsides Laboratory", "streetAddress": "1208 W. PENNSYLVANIA", "city": "URBANA", "state": "IL", "zipcode": "61801", "latitude": "40.1005985", "longitude": "-88.2244402"}], "0170": [{"buildingName": "Central Receiving Building", "streetAddress": "1609 S. OAK", "city": "CHAMPAIGN", "state": "IL", "zipcode": "61820", "latitude": "40.0968685", "longitude": "-88.2435751"}], "0171": [{"buildingName": "Meat Sciences Laboratory", "streetAddress": "1503 S. MARYLAND", "city": "URBANA", "state": "IL", "zipcode": "61801", "latitude": "40.0996946", "longitude": "-88.2228357"}], "0172": [{"buildingName": "Foreign Language Building", "streetAddress": "707 S. MATHEWS", "city": "URBANA", "state": "IL", "zipcode": "61801", "latitude": "40.1062812", "longitude": "-88.2256758"}], "0174": [{"buildingName": "Engineering Sciences Building", "streetAddress": "1101 W. SPRINGFIELD", "city": "URBANA", "state": "IL", "zipcode": "61801", "latitude": "40.1126336", "longitude": "-88.2227865"}], "0176": [{"buildingName": "Rehab Education Center", "streetAddress": "1207 S. OAK", "city": "CHAMPAIGN", "state": "IL", "zipcode": "61820", "latitude": "40.1034809", "longitude": "-88.2415048"}], "0178": [{"buildingName": "Mailing Center", "streetAddress": "1611 S. OAK", "city": "CHAMPAIGN", "state": "IL", "zipcode": "61820", "latitude": "40.0978281", "longitude": "-88.2414461"}], "0181": [{"buildingName": "Daniels Hall", "streetAddress": "1010 W. GREEN", "city": "URBANA", "state": "IL", "zipcode": "61801", "latitude": "40.1105568", "longitude": "-88.2207351"}], "0183": [{"buildingName": "Wood Engineering", "streetAddress": "1305 S. GOODWIN", "city": "URBANA", "state": "IL", "zipcode": "61801", "latitude": "40.1007037", "longitude": "-88.2242281"}], "0187": [{"buildingName": "Entomology Lab", "streetAddress": "1902 S. GRIFFITH DR.", "city": "CHAMPAIGN", "state": "IL", "zipcode": "61820", "latitude": "40.0924855", "longitude": "-88.242681"}], "0188": [{"buildingName": "Fred Turner Student Services Building", "streetAddress": "610 E. JOHN", "city": "CHAMPAIGN", "state": "IL", "zipcode": "61820", "latitude": "40.1093563", "longitude": "-88.2300217"}], "0192": [{"buildingName": "Medical Sciences Building", "streetAddress": "506 S. MATHEWS", "city": "URBANA", "state": "IL", "zipcode": "61801", "latitude": "40.1087733", "longitude": "-88.2255572"}], "0193": [{"buildingName": "Swanlund", "streetAddress": "601 E. JOHN", "city": "CHAMPAIGN", "state": "IL", "zipcode": "61820", "latitude": "40.1088502", "longitude": "-88.2301236"}], "0195": [{"buildingName": "1203 W Nevada", "streetAddress": "1203 W. NEVADA", "city": "URBANA", "state": "IL", "zipcode": "61801", "latitude": "40.1056762", "longitude": "-88.2243562"}], "0196": [{"buildingName": "Optical Physics and Engineering Building", "streetAddress": "607 E. HEALY", "city": "CHAMPAIGN", "state": "IL", "zipcode": "61820", "latitude": "40.1113897", "longitude": "-88.229401"}], "0197": [{"buildingName": "Turner Hall", "streetAddress": "1102 S. GOODWIN", "city": "URBANA", "state": "IL", "zipcode": "61801", "latitude": "40.102654", "longitude": "-88.223798"}], "0198": [{"buildingName": "Physical Plant Services Building", "streetAddress": "1501 S. OAK", "city": "CHAMPAIGN", "state": "IL", "zipcode": "61820", "latitude": "40.0988658", "longitude": "-88.2418265"}], "0199": [{"buildingName": "1001 W Nevada", "streetAddress": "1001 W. NEVADA", "city": "URBANA", "state": "IL", "zipcode": "61801", "latitude": "40.1059623", "longitude": "-88.2208916"}], "0201": [{"buildingName": "Garage and Car Pool", "streetAddress": "1701 S. OAK ST.", "city": "CHAMPAIGN", "state": "IL", "zipcode": "61820", "latitude": "40.0967999", "longitude": "-88.2414467"}], "0204": [{"buildingName": "Hydrogen Liquefier Building", "streetAddress": "1301 S. OAK", "city": "CHAMPAIGN", "state": "IL", "zipcode": "61820", "latitude": "40.0981822", "longitude": "-88.241449"}], "0206": [{"buildingName": "Waste Management And Research Laboratory", "streetAddress": "1 HAZELWOOD DR.", "city": "CHAMPAIGN", "state": "IL", "zipcode": "61820", "latitude": "40.0900968", "longitude": "-88.2424379"}], "0207": [{"buildingName": "1203 Half Nevada", "streetAddress": "1203 1/2 W. NEVADA", "city": "URBANA", "state": "IL", "zipcode": "61801", "latitude": "40.1055378", "longitude": "-88.224451"}], "0208": [{"buildingName": "Atmospheric Sciences", "streetAddress": "105 S. GREGORY STREET", "city": "URBANA", "state": "IL", "zipcode": "61801", "latitude": "40.112736", "longitude": "-88.2206723"}], "0209": [{"buildingName": "Speech and Hearing", "streetAddress": "901 S. SIXTH", "city": "CHAMPAIGN", "state": "IL", "zipcode": "61820", "latitude": "40.1079574", "longitude": "-88.2303642"}], "0210": [{"buildingName": "Digital Computer Lab", "streetAddress": "1304 W. SPRINGFIELD", "city": "URBANA", "state": "IL", "zipcode": "61801", "latitude": "40.1131463", "longitude": "-88.2264517"}], "0213": [{"buildingName": "Environmental Health and Safety", "streetAddress": "101 S. GREGORY AVE.", "city": "URBANA", "state": "IL", "zipcode": "61801", "latitude": "40.1127812", "longitude": "-88.2206734"}], "0217": [{"buildingName": "Housing Food Stores", "streetAddress": "1321 S. OAK", "city": "CHAMPAIGN", "state": "IL", "zipcode": "61820", "latitude": "40.1007403", "longitude": "-88.2417414"}], "0218": [{"buildingName": "School of Labor And Employment Relations", "streetAddress": "504 E. ARMORY", "city": "CHAMPAIGN", "state": "IL", "zipcode": "61820", "latitude": "40.1056406", "longitude": "-88.2315641"}], "0219": [{"buildingName": "Art and Design", "streetAddress": "408 E. PEABODY", "city": "CHAMPAIGN", "state": "IL", "zipcode": "61820", "latitude": "40.1018216", "longitude": "-88.2327505"}], "0220": [{"buildingName": "Krannert Art Museum", "streetAddress": "500 E. PEABODY", "city": "CHAMPAIGN", "state": "IL", "zipcode": "61820", "latitude": "40.101862", "longitude": "-88.2317371"}], "0221": [{"buildingName": "805 W Penn", "streetAddress": "805 W. PENNSYLVANIA", "city": "URBANA", "state": "IL", "zipcode": "61801", "latitude": "40.1004118", "longitude": "-88.2181227"}], "0222": [{"buildingName": "Printing Services", "streetAddress": "54 E. GREGORY", "city": "CHAMPAIGN", "state": "IL", "zipcode": "61820", "latitude": "40.1042413", "longitude": "-88.2398931"}], "0224": [{"buildingName": "1205 W Oregon", "streetAddress": "1205 W. OREGON", "city": "URBANA", "state": "IL", "zipcode": "61801", "latitude": "40.1069803", "longitude": "-88.2246111"}], "0227": [{"buildingName": "Orchard Place Apartments", "streetAddress": "1800  S. ORCHARD", "city": "URBANA", "state": "IL", "zipcode": "61801", "latitude": "40.0965427", "longitude": "-88.2142479"}], "0228": [{"buildingName": "Beckman Institute", "streetAddress": "405 N. MATHEWS", "city": "URBANA", "state": "IL", "zipcode": "61801", "latitude": "40.1156845", "longitude": "-88.2277357"}], "0230": [{"buildingName": "OD North Laundry", "streetAddress": "1900 S. ORCHARD", "city": "URBANA", "state": "IL", "zipcode": "61801", "latitude": "40.0948236", "longitude": "-88.2128857"}], "0232": [{"buildingName": "North Chiller", "streetAddress": "305 N. MATHEWS AVE.", "city": "URBANA", "state": "IL", "zipcode": "61801", "latitude": "40.1149953", "longitude": "-88.225669"}], "0233": [{"buildingName": "Housing Maintenance Shop", "streetAddress": "511 N. HAZELWOOD DRIVE", "city": "URBANA", "state": "IL", "zipcode": "61801", "latitude": "40.0903162", "longitude": "-88.2139333"}], "0236": [{"buildingName": "OD South Laundry", "streetAddress": "2054 S. ORCHARD", "city": "URBANA", "state": "IL", "zipcode": "61801", "latitude": "40.0918894", "longitude": "-88.2115179"}], "0237": [{"buildingName": "Micro and Nano", "streetAddress": "208 N. WRIGHT ST.", "city": "URBANA", "state": "IL", "zipcode": "61801", "latitude": "40.1139564", "longitude": "-88.2280367"}], "0238": [{"buildingName": "1207 W Oregon", "streetAddress": "1207 W. OREGON", "city": "URBANA", "state": "IL", "zipcode": "61801", "latitude": "40.1066889", "longitude": "-88.2248256"}], "0242": [{"buildingName": "Morrill Hall", "streetAddress": "505 S. GOODWIN", "city": "URBANA", "state": "IL", "zipcode": "61801", "latitude": "40.1090021", "longitude": "-88.2239041"}], "0243": [{"buildingName": "508 S Sixth", "streetAddress": "508 S. SIXTH", "city": "CHAMPAIGN", "state": "IL", "zipcode": "61820", "latitude": "40.1119907", "longitude": "-88.2300917"}], "0247": [{"buildingName": "625 S. Wright", "streetAddress": "625 S. WRIGHT ST.", "city": "CHAMPAIGN", "state": "IL", "zipcode": "61820", "latitude": "40.1108399", "longitude": "-88.2288803"}], "0249": [{"buildingName": "OD Community Building", "streetAddress": "509 W. GEORGE HUFF COURT", "city": "URBANA", "state": "IL", "zipcode": "61801", "latitude": "40.0906268", "longitude": "-88.2119012"}], "0250": [{"buildingName": "912 S Fifth", "streetAddress": "912 S. FIFTH", "city": "CHAMPAIGN", "state": "IL", "zipcode": "61820", "latitude": "40.1168011", "longitude": "-88.0381319"}], "0252": [{"buildingName": "Housing Warehouse", "streetAddress": "511 W. HAZELWOOD DRIVE", "city": "URBANA", "state": "IL", "zipcode": "61801", "latitude": "40.0909389", "longitude": "-88.2191162"}], "0255": [{"buildingName": "University Press Building", "streetAddress": "1325 S. OAK", "city": "CHAMPAIGN", "state": "IL", "zipcode": "61820", "latitude": "40.0981717", "longitude": "-88.2414489"}], "0256": [{"buildingName": "Plant Sciences Laboratory", "streetAddress": "1201 S. DORNER DRIVE", "city": "URBANA", "state": "IL", "zipcode": "61801", "latitude": "40.1028458", "longitude": "-88.2218363"}], "0257": [{"buildingName": "Ubben", "streetAddress": "1750 S. FOURTH ST.", "city": "CHAMPAIGN", "state": "IL", "zipcode": "61820", "latitude": "40.0955782", "longitude": "-88.2313849"}], "0268": [{"buildingName": "Dance Studio", "streetAddress": "905 W. NEVADA", "city": "URBANA", "state": "IL", "zipcode": "61801", "latitude": "40.1059786", "longitude": "-88.2206215"}], "0270": [{"buildingName": "Waste Transfer And Mat. Recovery Facility", "streetAddress": "10 ST. MARY'S ROAD", "city": "CHAMPAIGN", "state": "IL", "zipcode": "61820", "latitude": "40.0944618", "longitude": "-88.2444195"}], "0272": [{"buildingName": "Wardall Hall", "streetAddress": "1012 W. ILLINOIS ST.", "city": "URBANA", "state": "IL", "zipcode": "61801", "latitude": "40.1090497", "longitude": "-88.2214195"}], "0273": [{"buildingName": "Townsend Hall", "streetAddress": "918 W. ILLINOIS ST.", "city": "URBANA", "state": "IL", "zipcode": "61801", "latitude": "40.1096456", "longitude": "-88.2213868"}], "0274": [{"buildingName": "ISR Lounge", "streetAddress": "1010 W. ILLINOIS ST.", "city": "URBANA", "state": "IL", "zipcode": "61801", "latitude": "40.1090497", "longitude": "-88.2214164"}], "0275": [{"buildingName": "Food Service", "streetAddress": "1010 W. ILLINOIS ST.", "city": "URBANA", "state": "IL", "zipcode": "61801", "latitude": "40.1090497", "longitude": "-88.2214164"}], "0277": [{"buildingName": "Police Training Institute Tactical", "streetAddress": "609 1/2 E. CURTIS", "city": "CHAMPAIGN", "state": "IL", "zipcode": "61820", "latitude": "40.067397", "longitude": "-88.248099"}], "0281": [{"buildingName": "50 Gerty", "streetAddress": "50 E. GERTY", "city": "CHAMPAIGN", "state": "IL", "zipcode": "61820", "latitude": "40.087134", "longitude": "-88.241447"}], "0283": [{"buildingName": "Driver Training Facility", "streetAddress": "8 E. GERTY", "city": "CHAMPAIGN", "state": "IL", "zipcode": "61820", "latitude": "40.0870433", "longitude": "-88.2439391"}], "0287": [{"buildingName": "Vet Med Clinical Studies", "streetAddress": "1102 W. HAZELWOOD", "city": "URBANA", "state": "IL", "zipcode": "61801", "latitude": "40.0909386", "longitude": "-88.2200608"}], "0289": [{"buildingName": "State Water Survey Building 2", "streetAddress": "", "city": "", "state": "", "zipcode": "", "latitude": "", "longitude": ""}], "0290": [{"buildingName": "Fire Station", "streetAddress": "GERTY DR.", "city": "CHAMPAIGN", "state": "IL", "zipcode": "61820", "latitude": "40.0872807", "longitude": "-88.2399981"}], "0291": [{"buildingName": "Sherman Hall", "streetAddress": "909 S. FIFTH", "city": "CHAMPAIGN", "state": "IL", "zipcode": "61820", "latitude": "40.1072026", "longitude": "-88.2326908"}], "0294": [{"buildingName": "Fire Safety", "streetAddress": "11 GERTY DR.", "city": "CHAMPAIGN", "state": "IL", "zipcode": "61820", "latitude": "40.0862706", "longitude": "-88.2446934"}], "0295": [{"buildingName": "Trelease", "streetAddress": "901 COLLEGE COURT", "city": "URBANA", "state": "IL", "zipcode": "61801", "latitude": "40.0992848", "longitude": "-88.2202242"}], "0296": [{"buildingName": "Oglesby", "streetAddress": "1005 COLLEGE COURT", "city": "URBANA", "state": "IL", "zipcode": "61801", "latitude": "40.099287", "longitude": "-88.2214601"}], "0297": [{"buildingName": "Florida Avenue Residence Hall Lounge Building", "streetAddress": "1001 COLLEGE COURT", "city": "URBANA", "state": "IL", "zipcode": "61801", "latitude": "40.0992879", "longitude": "-88.2214124"}], "0300": [{"buildingName": "Astronomy Building", "streetAddress": "1002 W. GREEN", "city": "URBANA", "state": "IL", "zipcode": "61801", "latitude": "40.1108738", "longitude": "-88.2208955"}], "0304": [{"buildingName": "Track", "streetAddress": "1615 S. WRIGHT ST.", "city": "CHAMPAIGN", "state": "IL", "zipcode": "61820", "latitude": "40.0980053", "longitude": "-88.2287012"}], "0306": [{"buildingName": "Building Research Council Building", "streetAddress": "1 E. ST. MARYS RD.", "city": "CHAMPAIGN", "state": "IL", "zipcode": "61820", "latitude": "40.0940741", "longitude": "-88.242559"}], "0307": [{"buildingName": "Biological Control Laboratory", "streetAddress": "1904 S. GRIFFITH DR.", "city": "CHAMPAIGN", "state": "IL", "zipcode": "61820", "latitude": "40.092361", "longitude": "-88.2432075"}], "0311": [{"buildingName": "Survey Storage 1", "streetAddress": "1833 S. OAK ST.", "city": "CHAMPAIGN", "state": "IL", "zipcode": "61820", "latitude": "40.0952704", "longitude": "-88.2414309"}], "0312": [{"buildingName": "Natural History Survey Storage 2", "streetAddress": "1831 S. OAK ST.", "city": "CHAMPAIGN", "state": "IL", "zipcode": "61820", "latitude": "40.0952927", "longitude": "-88.241431"}], "0316": [{"buildingName": "Illinois Field", "streetAddress": "FLORIDA AVENUE AND WRIGHT STREET", "city": "URBANA", "state": "IL", "zipcode": "61801", "latitude": "40.0981067", "longitude": "-88.2287037"}], "0321": [{"buildingName": "Natural Resources Studies Annex", "streetAddress": "1910 GRIFFITH DR.", "city": "CHAMPAIGN", "state": "IL", "zipcode": "61820", "latitude": "40.0918618", "longitude": "-88.2422733"}], "0323": [{"buildingName": "Public Safety Building", "streetAddress": "1110 W. SPRINGFIELD", "city": "URBANA", "state": "IL", "zipcode": "61801", "latitude": "40.1129987", "longitude": "-88.2234744"}], "0324": [{"buildingName": "Grainger Library", "streetAddress": "1301 W. SPRINGFIELD", "city": "URBANA", "state": "IL", "zipcode": "61801", "latitude": "40.1124234", "longitude": "-88.2268552"}], "0326": [{"buildingName": "Agriculture Services Building", "streetAddress": "1917 S. WRIGHT", "city": "CHAMPAIGN", "state": "IL", "zipcode": "61820", "latitude": "40.0929116", "longitude": "-88.2285969"}], "0327": [{"buildingName": "South Studio 2", "streetAddress": "2122 GRIFFITH DR.", "city": "CHAMPAIGN", "state": "IL", "zipcode": "61820", "latitude": "40.088064", "longitude": "-88.2425777"}], "0328": [{"buildingName": "South Studio 1", "streetAddress": "2128 GRIFFITH DR.", "city": "CHAMPAIGN", "state": "IL", "zipcode": "61820", "latitude": "40.087985", "longitude": "-88.2425771"}], "0331": [{"buildingName": "Library Information Sciences Building", "streetAddress": "501 E. DANIEL ST.", "city": "CHAMPAIGN", "state": "IL", "zipcode": "61820", "latitude": "40.1077795", "longitude": "-88.2316213"}], "0336": [{"buildingName": "Edward R Madigan Laboratory", "streetAddress": "1201 W. GREGORY DR.", "city": "URBANA", "state": "IL", "zipcode": "61801", "latitude": "40.1041765", "longitude": "-88.224695"}], "0338": [{"buildingName": "South Studio 3", "streetAddress": "2116 GRIFFITH DR.", "city": "CHAMPAIGN", "state": "IL", "zipcode": "61820", "latitude": "40.0881431", "longitude": "-88.2425783"}], "0339": [{"buildingName": "Temple Buell Hall", "streetAddress": "611 Lorado Taft Dr", "city": "CHAMPAIGN", "state": "IL", "zipcode": "61820", "latitude": "40.1021017", "longitude": "-88.2279134"}], "0347": [{"buildingName": "Motorcycle Safety", "streetAddress": "4 GERTY DR.", "city": "CHAMPAIGN", "state": "IL", "zipcode": "61820", "latitude": "40.0870434", "longitude": "-88.244442"}], "0350": [{"buildingName": "Veterinary Medicine Basic Science Building", "streetAddress": "2001 S. LINCOLN", "city": "URBANA", "state": "IL", "zipcode": "61801", "latitude": "40.093017", "longitude": "-88.2208847"}], "0352": [{"buildingName": "Veterinary Medicine Chiller Plant", "streetAddress": "2004 S. LINCOLN", "city": "URBANA", "state": "IL", "zipcode": "61801", "latitude": "40.0885683", "longitude": "-88.2189302"}], "0353": [{"buildingName": "505 E Green", "streetAddress": "505 E. GREEN", "city": "CHAMPAIGN", "state": "IL", "zipcode": "61820", "latitude": "40.1099531", "longitude": "-88.2314543"}], "0354": [{"buildingName": "Japan House", "streetAddress": "2000 S. LINCOLN", "city": "URBANA", "state": "IL", "zipcode": "61801", "latitude": "40.0927651", "longitude": "-88.2178875"}], "0358": [{"buildingName": "PTI", "streetAddress": "1004 S. FOURTH ST.", "city": "CHAMPAIGN", "state": "IL", "zipcode": "61820", "latitude": "40.1064195", "longitude": "-88.2330398"}], "0359": [{"buildingName": "Covenent", "streetAddress": "", "city": "", "state": "", "zipcode": "", "latitude": "", "longitude": ""}], "0364": [{"buildingName": "CRCE", "streetAddress": "1102 W. GREGORY DR.", "city": "URBANA", "state": "IL", "zipcode": "61801", "latitude": "40.104509", "longitude": "-88.221953"}], "0365": [{"buildingName": "Dance Admin", "streetAddress": "907 1/2 W. NEVADA", "city": "URBANA", "state": "IL", "zipcode": "61801", "latitude": "40.1059685", "longitude": "-88.219718"}], "0366": [{"buildingName": "South Studio 4", "streetAddress": "2110 GRIFFITH DR.", "city": "CHAMPAIGN", "state": "IL", "zipcode": "61820", "latitude": "40.0882221", "longitude": "-88.2425789"}], "0367": [{"buildingName": "901 W Oregon", "streetAddress": "901 W. OREGON", "city": "URBANA", "state": "IL", "zipcode": "61801", "latitude": "40.1067531", "longitude": "-88.2194651"}], "0369": [{"buildingName": "International Studies Building", "streetAddress": "910 S. FIFTH ST.", "city": "CHAMPAIGN", "state": "IL", "zipcode": "61820", "latitude": "40.1072392", "longitude": "-88.2318771"}], "0370": [{"buildingName": "Graduate Photo Studio", "streetAddress": "2108 GRIFFITH DR.", "city": "CHAMPAIGN", "state": "IL", "zipcode": "61820", "latitude": "40.0883762", "longitude": "-88.2425801"}], "0371": [{"buildingName": "South Studio 7", "streetAddress": "2111 GRIFFITH DR.", "city": "CHAMPAIGN", "state": "IL", "zipcode": "61820", "latitude": "40.0885306", "longitude": "-88.2425813"}], "0372": [{"buildingName": "Special Materials Storage Facility", "streetAddress": "3 HAZELWOOD DR.", "city": "CHAMPAIGN", "state": "IL", "zipcode": "61820", "latitude": "40.0908197", "longitude": "-88.2424473"}], "0373": [{"buildingName": "Spurlock Museum", "streetAddress": "600 S. GREGORY ST.", "city": "URBANA", "state": "IL", "zipcode": "61801", "latitude": "40.1076189", "longitude": "-88.2207856"}], "0375": [{"buildingName": "South Studio 6", "streetAddress": "2109 GRIFFITH DR.", "city": "CHAMPAIGN", "state": "IL", "zipcode": "61820", "latitude": "40.088564", "longitude": "-88.2425815"}], "0376": [{"buildingName": "Campbell Hall", "streetAddress": "300 S GOODWIN", "city": "URBANA", "state": "IL", "zipcode": "61801", "latitude": "40.1101424", "longitude": "-88.2237624"}], "0377": [{"buildingName": "ACES Funk Library", "streetAddress": "1101 S GOODWIN", "city": "URBANA", "state": "IL", "zipcode": "61801", "latitude": "40.1028279", "longitude": "-88.2251215"}], "0378": [{"buildingName": "Admissions and Records Building", "streetAddress": "901 W. ILLINOIS", "city": "URBANA", "state": "IL", "zipcode": "61801", "latitude": "40.108308", "longitude": "-88.2206533"}], "0379": [{"buildingName": "Bielfeldt Hall", "streetAddress": "1700 S. FOURTH ST.", "city": "CHAMPAIGN", "state": "IL", "zipcode": "61820", "latitude": "40.09624", "longitude": "-88.232719"}], "0380": [{"buildingName": "Campus Rec Outdoor Center", "streetAddress": "51 E. GREGORY DR.", "city": "CHAMPAIGN", "state": "IL", "zipcode": "61820", "latitude": "40.1040918", "longitude": "-88.23871"}], "0381": [{"buildingName": "Irwin Academic Building", "streetAddress": "402 E. ARMORY", "city": "CHAMPAIGN", "state": "IL", "zipcode": "61820", "latitude": "40.1054093", "longitude": "-88.2327608"}], "0383": [{"buildingName": "Chanute Facility 918", "streetAddress": "1605 TITAN DRIVE", "city": "RANTOUL", "state": "IL", "zipcode": "61866", "latitude": "40.2856789", "longitude": "-88.130097"}], "0384": [{"buildingName": "Chanute Facility 927", "streetAddress": "1607 TITAN DRIVE", "city": "RANTOUL", "state": "IL", "zipcode": "61866", "latitude": "40.2856914", "longitude": "-88.1284123"}], "0407": [{"buildingName": "Irwin Indoor Football Facility", "streetAddress": "301 E. PEABODY DR.", "city": "CHAMPAIGN", "state": "IL", "zipcode": "61820", "latitude": "40.1014609", "longitude": "-88.2335628"}], "0409": [{"buildingName": "ECE Building", "streetAddress": "306 N. WRIGHT ST.", "city": "URBANA", "state": "IL", "zipcode": "61801", "latitude": "40.1150399", "longitude": "-88.2281974"}], "0506": [{"buildingName": "909 W Oregon", "streetAddress": "909 W. OREGON", "city": "URBANA", "state": "IL", "zipcode": "61801", "latitude": "40.107005", "longitude": "-88.2201461"}], "0507": [{"buildingName": "Illini Plaza", "streetAddress": "1819 S. NEIL ST", "city": "CHAMPAIGN", "state": "IL", "zipcode": "61820", "latitude": "40.0936336", "longitude": "-88.2475113"}], "0523": [{"buildingName": "201 W Curtis Suite 1", "streetAddress": "201 West Curtis Road", "city": "SAVOY", "state": "IL", "zipcode": "61874", "latitude": "40.0690235", "longitude": "-88.2511751"}], "0528": [{"buildingName": "631 Green", "streetAddress": "703 S. WRIGHT", "city": "CHAMPAIGN", "state": "IL", "zipcode": "61820", "latitude": "40.1102163", "longitude": "-88.2288744"}], "0530": [{"buildingName": "1112 W University", "streetAddress": "1112 W. UNIVERSITY", "city": "URBANA", "state": "IL", "zipcode": "61801", "latitude": "40.116677", "longitude": "-88.2237913"}], "0540": [{"buildingName": "Illini Center", "streetAddress": "200 S. WACKER DR", "city": "CHICAGO", "state": "IL", "zipcode": "60606", "latitude": "41.8789094", "longitude": "-87.6372232"}], "0547": [{"buildingName": "510 Devonshire", "streetAddress": "510 DEVONSHIRE", "city": "CHAMPAIGN", "state": "IL", "zipcode": "61820", "latitude": "40.090099", "longitude": "-88.251356"}], "0554": [{"buildingName": "WILL Monticello", "streetAddress": "", "city": "", "state": "", "zipcode": "", "latitude": "", "longitude": ""}], "0556": [{"buildingName": "Fire Sub Station", "streetAddress": "1105 W. GREGORY DR.", "city": "URBANA", "state": "IL", "zipcode": "61801", "latitude": "40.1041765", "longitude": "-88.224695"}], "0559": [{"buildingName": "111 E Green", "streetAddress": "111 E. GREEN STREET", "city": "CHAMPAIGN", "state": "IL", "zipcode": "61820", "latitude": "40.1099502", "longitude": "-88.2375423"}], "0560": [{"buildingName": "Eichelberger Field Press Box", "streetAddress": "1201 W. FLORIDA AVE.", "city": "URBANA", "state": "IL", "zipcode": "61801", "latitude": "40.0981307", "longitude": "-88.225673"}], "0563": [{"buildingName": "Siebel Center", "streetAddress": "201 N. GOODWIN AVENUE", "city": "URBANA", "state": "IL", "zipcode": "61801", "latitude": "40.1138245", "longitude": "-88.2240759"}], "0564": [{"buildingName": "NCSA", "streetAddress": "1205 W. CLARK ST.", "city": "URBANA", "state": "IL", "zipcode": "61801", "latitude": "40.1148212", "longitude": "-88.2250014"}], "0565": [{"buildingName": "Carle Forum Center", "streetAddress": "611 W. PARK", "city": "URBANA", "state": "IL", "zipcode": "61801", "latitude": "40.1169199", "longitude": "-88.2148252"}], "0568": [{"buildingName": "Native American House", "streetAddress": "1206 W. NEVADA", "city": "URBANA", "state": "IL", "zipcode": "61801", "latitude": "40.1061362", "longitude": "-88.2244933"}], "0572": [{"buildingName": "Trade Center", "streetAddress": "100 TRADE CENTER DRIVE", "city": "CHAMPAIGN", "state": "IL", "zipcode": "61820", "latitude": "40.0972756", "longitude": "-88.2459399"}], "0652": [{"buildingName": "Control Tower", "streetAddress": "1 AIRPORT ROAD", "city": "SAVOY", "state": "IL", "zipcode": "61874", "latitude": "40.0401", "longitude": "-88.270777"}], "0656": [{"buildingName": "Snow Removal Equipment Building", "streetAddress": "25 AIRPORT ROAD", "city": "SAVOY", "state": "IL", "zipcode": "61874", "latitude": "40.0366924", "longitude": "-88.2637269"}], "0671": [{"buildingName": "Quonset 7", "streetAddress": "16 AIRPORT ROAD", "city": "SAVOY", "state": "IL", "zipcode": "61874", "latitude": "40.0366924", "longitude": "-88.2637269"}], "0672": [{"buildingName": "Quonset 8", "streetAddress": "8 AIRPORT ROAD", "city": "SAVOY", "state": "IL", "zipcode": "61874", "latitude": "40.0394236", "longitude": "-88.2669192"}], "0675": [{"buildingName": "Willard Main Terminal", "streetAddress": "11 AIRPORT ROAD", "city": "SAVOY", "state": "IL", "zipcode": "61874", "latitude": "40.0366924", "longitude": "-88.2637269"}], "0676": [{"buildingName": "Willard Institute of Aviation", "streetAddress": "1 AIRPORT ROAD", "city": "SAVOY", "state": "IL", "zipcode": "61874", "latitude": "40.0401", "longitude": "-88.270777"}], "0677": [{"buildingName": "Airport Rescue and Firefighting", "streetAddress": "3 AIRPORT ROAD", "city": "SAVOY", "state": "IL", "zipcode": "61874", "latitude": "40.0393991", "longitude": "-88.2552527"}], "0684": [{"buildingName": "Caretakers House", "streetAddress": "25 AIRPORT ROAD", "city": "SAVOY", "state": "IL", "zipcode": "61874", "latitude": "40.0366924", "longitude": "-88.2637269"}], "0774": [{"buildingName": "OD Computer Lab", "streetAddress": "2030 ORCHARD", "city": "URBANA", "state": "IL", "zipcode": "61801", "latitude": "40.0924743", "longitude": "-88.2115556"}], "0777": [{"buildingName": "OD Health Clinic", "streetAddress": "2040-42-44 ORCHARD", "city": "URBANA", "state": "IL", "zipcode": "61801", "latitude": "40.0922302", "longitude": "-88.2115531"}], "0794": [{"buildingName": "Orchard Downs South Computer Lab", "streetAddress": "2106 S. ORCHARD", "city": "URBANA", "state": "IL", "zipcode": "61801", "latitude": "40.0901696", "longitude": "-88.2103795"}], "0815": [{"buildingName": "Horse Feed Storage", "streetAddress": "305 E. ST. MARY'S RD.", "city": "CHAMPAIGN", "state": "IL", "zipcode": "61820", "latitude": "40.0944982", "longitude": "-88.2330481"}], "0824": [{"buildingName": "Agronomy South Farms Laboratory", "streetAddress": "2102 S. WRIGHT", "city": "URBANA", "state": "IL", "zipcode": "61801", "latitude": "40.0920614", "longitude": "-88.2285899"}], "0828": [{"buildingName": "Animal Science Shop and Storage Horse Farm", "streetAddress": "1810 S. FOURTH ST.", "city": "CHAMPAIGN", "state": "IL", "zipcode": "61820", "latitude": "40.0938477", "longitude": "-88.2320369"}], "0831": [{"buildingName": "Animal Science K40 Facility", "streetAddress": "501 E. ST. MARY'S RD.", "city": "CHAMPAIGN", "state": "IL", "zipcode": "61820", "latitude": "40.094494", "longitude": "-88.2310833"}], "0842": [{"buildingName": "Seedhouse", "streetAddress": "2102 S. WRIGHT ST.", "city": "CHAMPAIGN", "state": "IL", "zipcode": "61820", "latitude": "40.0920614", "longitude": "-88.2285899"}], "0846": [{"buildingName": "Sheet Metal Barn", "streetAddress": "W. HAZELWOOD DR.", "city": "URBANA", "state": "IL", "zipcode": "61801", "latitude": "40.090964", "longitude": "-88.223781"}], "0853": [{"buildingName": "USDA Growth Chamber Building", "streetAddress": "W. HAZELWOOD DR.", "city": "URBANA", "state": "IL", "zipcode": "61801", "latitude": "40.090964", "longitude": "-88.223781"}], "0855": [{"buildingName": "Dairy Experimental Round Barn", "streetAddress": "1201 W. ST. MARY'S RD.", "city": "URBANA", "state": "IL", "zipcode": "61801", "latitude": "40.0944922", "longitude": "-88.2267025"}], "0884": [{"buildingName": "Pollinatarium", "streetAddress": "606 W. WINDSOR RD.", "city": "URBANA", "state": "IL", "zipcode": "61801", "latitude": "40.0835736", "longitude": "-88.2140202"}], "0885": [{"buildingName": "Horticulture Research Laboratory", "streetAddress": "S. LINCOLN", "city": "URBANA", "state": "IL", "zipcode": "61801", "latitude": "40.0909463", "longitude": "-88.218969"}], "0934": [{"buildingName": "Milking Parlor", "streetAddress": "2301 S. LINCOLN", "city": "URBANA", "state": "IL", "zipcode": "61801", "latitude": "40.0884245", "longitude": "-88.2201388"}], "0957": [{"buildingName": "Swine Research Center Farm House", "streetAddress": "3502 S. FIRST", "city": "CHAMPAIGN", "state": "IL", "zipcode": "61820", "latitude": "40.0658976", "longitude": "-88.2383665"}], "0974": [{"buildingName": "Poultry Office USDA Soybean Lab", "streetAddress": "3603 SOUTH RACE", "city": "URBANA", "state": "IL", "zipcode": "61801", "latitude": "40.0729044", "longitude": "-88.209279"}], "0983": [{"buildingName": "Machinery Storage Building", "streetAddress": "3603 SOUTH RACE", "city": "URBANA", "state": "IL", "zipcode": "61801", "latitude": "40.0729044", "longitude": "-88.209279"}], "0991": [{"buildingName": "Soybean Research Agronomy Farm", "streetAddress": "1308 W. HAZELWOOD DR.", "city": "URBANA", "state": "IL", "zipcode": "61801", "latitude": "40.0912749", "longitude": "-88.2251742"}], "1027": [{"buildingName": "Aeronomy Field Station", "streetAddress": "", "city": "", "state": "", "zipcode": "", "latitude": "", "longitude": ""}], "1028": [{"buildingName": "Laser Radar Facility", "streetAddress": "", "city": "", "state": "", "zipcode": "", "latitude": "", "longitude": ""}], "1030": [{"buildingName": "Swine Research Center", "streetAddress": "3502 S. FIRST ST.", "city": "CHAMPAIGN", "state": "IL", "zipcode": "61820", "latitude": "40.0658976", "longitude": "-88.2383665"}], "1032": [{"buildingName": "Swine Research Center", "streetAddress": "3502 S. FIRST ST.", "city": "CHAMPAIGN", "state": "IL", "zipcode": "61820", "latitude": "40.0658976", "longitude": "-88.2383665"}], "1048": [{"buildingName": "Pesticides", "streetAddress": "1819 S. OAK ST.", "city": "CHAMPAIGN", "state": "IL", "zipcode": "61820", "latitude": "40.0931041", "longitude": "-88.2408967"}], "1071": [{"buildingName": "Early Childhood Development Lab", "streetAddress": "1005 W. NEVADA", "city": "URBANA", "state": "IL", "zipcode": "61801", "latitude": "40.1059809", "longitude": "-88.220184"}], "1073": [{"buildingName": "Forbes Natural History", "streetAddress": "1816 S. OAK STREET", "city": "CHAMPAIGN", "state": "IL", "zipcode": "61820", "latitude": "40.0928967", "longitude": "-88.2399805"}], "1074": [{"buildingName": "Z Building", "streetAddress": "1901 S. FIRST ST.", "city": "CHAMPAIGN", "state": "IL", "zipcode": "61820", "latitude": "40.092336", "longitude": "-88.238935"}], "1075": [{"buildingName": "Gateway Building", "streetAddress": "2001 S. FIRST, SUITE 201", "city": "CHAMPAIGN", "state": "IL", "zipcode": "61820", "latitude": "40.090271", "longitude": "-88.2392429"}], "1083": [{"buildingName": "Technology Plaza", "streetAddress": "616 E. GREEN", "city": "CHAMPAIGN", "state": "IL", "zipcode": "61820", "latitude": "40.1106295", "longitude": "-88.2296312"}], "1085": [{"buildingName": "Soyface Trailer", "streetAddress": "", "city": "", "state": "", "zipcode": "", "latitude": "", "longitude": ""}], "1093": [{"buildingName": "Aerodynamics Research Laboratory", "streetAddress": "1021 WESTERN AVENUE", "city": "URBANA", "state": "IL", "zipcode": "61801", "latitude": "40.1122205", "longitude": "-88.2186301"}], "1094": [{"buildingName": "North Campus Parking Deck", "streetAddress": "1201 W. UNIVERSITY AVENUE", "city": "URBANA", "state": "IL", "zipcode": "61801", "latitude": "40.1163918", "longitude": "-88.224103"}], "1095": [{"buildingName": "Enterprise Works", "streetAddress": "60 HAZELWOOD DRIVE", "city": "CHAMPAIGN", "state": "IL", "zipcode": "61820", "latitude": "40.0911149", "longitude": "-88.2401544"}], "1096": [{"buildingName": "Oak Street Library", "streetAddress": "809 S. OAK STREET", "city": "CHAMPAIGN", "state": "IL", "zipcode": "61820", "latitude": "40.1079673", "longitude": "-88.2415631"}], "1101": [{"buildingName": "Pond Site Laboratory", "streetAddress": "3505 S. LINCOLN AVE.", "city": "URBANA", "state": "IL", "zipcode": "61801", "latitude": "40.0738951", "longitude": "-88.2194269"}], "1103": [{"buildingName": "Z2", "streetAddress": "2001 SOURTH FIRST STREET", "city": "CHAMPAIGN", "state": "IL", "zipcode": "61820", "latitude": "40.090271", "longitude": "-88.2392429"}], "1104": [{"buildingName": "State Water Survey Building 1", "streetAddress": "", "city": "", "state": "", "zipcode": "", "latitude": "", "longitude": ""}], "1106": [{"buildingName": "State Water Survey Building 3", "streetAddress": "", "city": "", "state": "", "zipcode": "", "latitude": "", "longitude": ""}], "1107": [{"buildingName": "State Water Survey Building 4", "streetAddress": "15 BAILEY DR.", "city": "CHAMPAIGN", "state": "IL", "zipcode": "61820", "latitude": "40.1158124", "longitude": "-88.2422903"}], "1108": [{"buildingName": "State Water Survey Building 5", "streetAddress": "", "city": "", "state": "", "zipcode": "", "latitude": "", "longitude": ""}], "1109": [{"buildingName": "State Water Survey Building 6", "streetAddress": "65 BAILEY DR.", "city": "CHAMPAIGN", "state": "IL", "zipcode": "61820", "latitude": "40.115162", "longitude": "-88.2398478"}], "1112": [{"buildingName": "State Water Survey Building 9", "streetAddress": "", "city": "", "state": "", "zipcode": "", "latitude": "", "longitude": ""}], "1114": [{"buildingName": "CDMS", "streetAddress": "1108 W. STOUGHTON", "city": "CHAMPAIGN", "state": "IL", "zipcode": "61820", "latitude": "40.113812", "longitude": "-88.223285"}], "1115": [{"buildingName": "203 W Curtis Suite 1", "streetAddress": "203 West Curtis Road", "city": "SAVOY", "state": "IL", "zipcode": "61874", "latitude": "40.0690237", "longitude": "-88.2512084"}], "1131": [{"buildingName": "201 W Curtis Suite 2", "streetAddress": "201 West Curtis Road", "city": "SAVOY", "state": "IL", "zipcode": "61874", "latitude": "40.0690235", "longitude": "-88.2511751"}], "1133": [{"buildingName": "Christopher Hall", "streetAddress": "904 WEST NEVADA STREET", "city": "URBANA", "state": "IL", "zipcode": "61801", "latitude": "40.1062896", "longitude": "-88.2195943"}], "1139": [{"buildingName": "State Water Survey Building 11", "streetAddress": "2208 S. GRIFFITH DR.", "city": "CHAMPAIGN", "state": "IL", "zipcode": "61820", "latitude": "40.0868577", "longitude": "-88.2425683"}], "1140": [{"buildingName": "701 Greg", "streetAddress": "701 S. GREGORY", "city": "URBANA", "state": "IL", "zipcode": "61801", "latitude": "40.106589", "longitude": "-88.2217624"}], "1145": [{"buildingName": "Asian American House", "streetAddress": "1210 W. NEVADA", "city": "URBANA", "state": "IL", "zipcode": "61801", "latitude": "40.1060614", "longitude": "-88.2246774"}], "1146": [{"buildingName": "Beef and Sheep Field Lab", "streetAddress": "4900 S. RACE STREET", "city": "URBANA", "state": "IL", "zipcode": "61802", "latitude": "40.0568278", "longitude": "-88.2086847"}], "1154": [{"buildingName": "Calving Isolation", "streetAddress": "4900 S. RACE STREET", "city": "URBANA", "state": "IL", "zipcode": "61802", "latitude": "40.0568278", "longitude": "-88.2086847"}], "1165": [{"buildingName": "Bee Research", "streetAddress": "3515 SOUTH LINCOLN AVENUE", "city": "URBANA", "state": "IL", "zipcode": "61801", "latitude": "40.0740268", "longitude": "-88.2186976"}], "1171": [{"buildingName": "FSI Hazmat Storage Building", "streetAddress": "11 EAST GERTY DRIVE", "city": "CHAMPAIGN", "state": "IL", "zipcode": "61820", "latitude": "40.0862706", "longitude": "-88.2446934"}], "1172": [{"buildingName": "FSI Storage Building", "streetAddress": "11 EAST GERTY DRIVE", "city": "CHAMPAIGN", "state": "IL", "zipcode": "61820", "latitude": "40.0862706", "longitude": "-88.2446934"}], "1173": [{"buildingName": "FSI Apparatus Storage Building", "streetAddress": "11 EAST GERTY DRIVE", "city": "CHAMPAIGN", "state": "IL", "zipcode": "61820", "latitude": "40.0862706", "longitude": "-88.2446934"}], "1178": [{"buildingName": "FSI South Storage Building", "streetAddress": "11 EAST GERTY DRIVE", "city": "CHAMPAIGN", "state": "IL", "zipcode": "61820", "latitude": "40.0862706", "longitude": "-88.2446934"}], "1187": [{"buildingName": "Indoor Golf", "streetAddress": "1415 W. ST. MARY'S ROAD", "city": "URBANA", "state": "IL", "zipcode": "61801", "latitude": "40.094127", "longitude": "-88.228021"}], "1206": [{"buildingName": "Business Instructional Facility", "streetAddress": "515 GREGORY DRIVE", "city": "CHAMPAIGN", "state": "IL", "zipcode": "61820", "latitude": "40.1033497", "longitude": "-88.231281"}], "1207": [{"buildingName": "528 Green", "streetAddress": "528 E. GREEN", "city": "CHAMPAIGN", "state": "IL", "zipcode": "61820", "latitude": "40.1105017", "longitude": "-88.2306324"}], "1209": [{"buildingName": "Engineering Senior Project Laboratory", "streetAddress": "1023 WESTERN AVENUE", "city": "URBANA", "state": "IL", "zipcode": "61801", "latitude": "40.1122204", "longitude": "-88.2186378"}], "1211": [{"buildingName": "Tech Fab", "streetAddress": "1211-2111 S. OAK ST.", "city": "CHAMPAIGN", "state": "IL", "zipcode": "61820", "latitude": "40.0886442", "longitude": "-88.2413721"}], "1213": [{"buildingName": "Child Care Facility", "streetAddress": "2001 S. OAK", "city": "CHAMPAIGN", "state": "IL", "zipcode": "61820", "latitude": "40.0901662", "longitude": "-88.241461"}], "1214": [{"buildingName": "Conference Center", "streetAddress": "111 ST. MARY'S ROAD", "city": "CHAMPAIGN", "state": "IL", "zipcode": "61820", "latitude": "40.093898", "longitude": "-88.236614"}], "1216": [{"buildingName": "Poultry Cage House Building 3", "streetAddress": "4513 S. RACE ST.", "city": "URBANA", "state": "IL", "zipcode": "61802", "latitude": "40.0696581", "longitude": "-88.2092314"}], "1217": [{"buildingName": "Ashton Woods Apartment Office", "streetAddress": "2221 S. FIRST STREET", "city": "CHAMPAIGN", "state": "IL", "zipcode": "61820", "latitude": "40.0853593", "longitude": "-88.2387619"}], "1233": [{"buildingName": "Integrated Bioprocessing Research Laboratory", "streetAddress": "1300 W. Pennsylvania Avenue", "city": "URBANA", "state": "IL", "zipcode": "61802", "latitude": "40.100582", "longitude": "-88.2265801"}], "1234": [{"buildingName": "Poultry Specialized Research Building 2", "streetAddress": "4513 S. RACE STREET", "city": "URBANA", "state": "IL", "zipcode": "61802", "latitude": "40.0696581", "longitude": "-88.2092314"}], "1235": [{"buildingName": "Poultry Chick Lab Hatchery Building 1", "streetAddress": "4513 S. RACE STREET", "city": "URBANA", "state": "IL", "zipcode": "61802", "latitude": "40.0696581", "longitude": "-88.2092314"}], "1236": [{"buildingName": "Poultry Grower House 4", "streetAddress": "4513 S. RACE STREET", "city": "URBANA", "state": "IL", "zipcode": "61802", "latitude": "40.0696581", "longitude": "-88.2092314"}], "1237": [{"buildingName": "Poultry Breeder House Building 5", "streetAddress": "4513 S. RACE STREET", "city": "URBANA", "state": "IL", "zipcode": "61802", "latitude": "40.0696581", "longitude": "-88.2092314"}], "1241": [{"buildingName": "700 S Gregory", "streetAddress": "1010 W. NEVADA", "city": "URBANA", "state": "IL", "zipcode": "61802", "latitude": "40.1060063", "longitude": "-88.2213733"}], "1242": [{"buildingName": "EBI Metal Shed", "streetAddress": "4301 S. PHILO ROAD", "city": "URBANA", "state": "IL", "zipcode": "61802", "latitude": "40.068252", "longitude": "-88.190453"}], "1244": [{"buildingName": "Petascale", "streetAddress": "1244-1725 S. OAK STREET", "city": "CHAMPAIGN", "state": "IL", "zipcode": "61820", "latitude": "40.0952391", "longitude": "-88.2420336"}], "1247": [{"buildingName": "Ikenberry Dining", "streetAddress": "301 E. GREGORY DRIVE", "city": "CHAMPAIGN", "state": "IL", "zipcode": "61820", "latitude": "40.103937", "longitude": "-88.235277"}], "1248": [{"buildingName": "Nugent Hall", "streetAddress": "207 E. GREGORY DRIVE", "city": "CHAMPAIGN", "state": "IL", "zipcode": "61820", "latitude": "40.1040992", "longitude": "-88.2368383"}], "1249": [{"buildingName": "Wassaja Hall", "streetAddress": "1202 S. FIRST", "city": "CHAMPAIGN", "state": "IL", "zipcode": "61820", "latitude": "40.1040278", "longitude": "-88.238627"}], "1252": [{"buildingName": "Bousfield Hall", "streetAddress": "", "city": "", "state": "", "zipcode": "", "latitude": "", "longitude": ""}], "1258": [{"buildingName": "Fruit Research", "streetAddress": "2711 S. RACE STREET", "city": "CHAMPAIGN", "state": "IL", "zipcode": "61820", "latitude": "40.083326", "longitude": "-88.2094315"}], "1261": [{"buildingName": "FSI Learning Resource Center", "streetAddress": "25 GERTY DRIVE", "city": "CHAMPAIGN", "state": "IL", "zipcode": "61820", "latitude": "40.0870413", "longitude": "-88.2423055"}], "1262": [{"buildingName": "507 E Green", "streetAddress": "507 E. GREEN", "city": "CHAMPAIGN", "state": "IL", "zipcode": "61820", "latitude": "40.1099261", "longitude": "-88.2311039"}], "1263": [{"buildingName": "McFarland Carillon", "streetAddress": "1401  W. LOREDO TAFT DRIVE", "city": "URBANA", "state": "IL", "zipcode": "61801", "latitude": "40.1029698", "longitude": "-88.2289592"}], "1265": [{"buildingName": "901 W University", "streetAddress": "901 W. UNIVERSITY", "city": "URBANA", "state": "IL", "zipcode": "61801", "latitude": "40.1161317", "longitude": "-88.2197603"}], "1266": [{"buildingName": "Tech Fab 2", "streetAddress": "", "city": "", "state": "", "zipcode": "", "latitude": "", "longitude": ""}], "1267": [{"buildingName": "EBI Shed", "streetAddress": "4110 S. RACE", "city": "URBANA", "state": "IL", "zipcode": "61801", "latitude": "40.0656331", "longitude": "-88.2088959"}], "1268": [{"buildingName": "Robert Evers Lab", "streetAddress": "1909  S. OAK STREET", "city": "CHAMPAIGN", "state": "IL", "zipcode": "61820", "latitude": "40.0914201", "longitude": "-88.240932"}], "1270": [{"buildingName": "Eichelberger Field Locker Room", "streetAddress": "1201 W. FLORIDA AVE.", "city": "URBANA", "state": "IL", "zipcode": "61801", "latitude": "40.0981307", "longitude": "-88.225673"}], "1284": [{"buildingName": "Illinois Field Locker Room", "streetAddress": "FLORIDA AVENUE AND WRIGHT STREET", "city": "URBANA", "state": "IL", "zipcode": "61801", "latitude": "40.0981067", "longitude": "-88.2287037"}], "1291": [{"buildingName": "Biomass Drying Shed", "streetAddress": "4110  S. RACE STREET", "city": "URBANA", "state": "IL", "zipcode": "61801", "latitude": "40.0656331", "longitude": "-88.2088959"}], "1294": [{"buildingName": "Gable Home", "streetAddress": "1902 S. FIRST STREET", "city": "CHAMPAIGN", "state": "IL", "zipcode": "61820", "latitude": "40.0938997", "longitude": "-88.2377961"}], "1380": [{"buildingName": "Dixon Springs IFRC", "streetAddress": "", "city": "", "state": "", "zipcode": "", "latitude": "", "longitude": ""}], "1381": [{"buildingName": "Dixon Springs Arnold House", "streetAddress": "", "city": "", "state": "", "zipcode": "", "latitude": "", "longitude": ""}], "1391": [{"buildingName": "Dixon Springs Dorm And Meeting Hall", "streetAddress": "", "city": "", "state": "", "zipcode": "", "latitude": "", "longitude": ""}], "1393": [{"buildingName": "Dixon Springs Admin Office", "streetAddress": "", "city": "", "state": "", "zipcode": "", "latitude": "", "longitude": ""}], "1402": [{"buildingName": "Dixon Springs Green Barn", "streetAddress": "", "city": "", "state": "", "zipcode": "", "latitude": "", "longitude": ""}], "1405": [{"buildingName": "Dixon Springs Hart House", "streetAddress": "", "city": "", "state": "", "zipcode": "", "latitude": "", "longitude": ""}], "1407": [{"buildingName": "Dixon Springs Office and Lab", "streetAddress": "", "city": "", "state": "", "zipcode": "", "latitude": "", "longitude": ""}], "1463": [{"buildingName": "Crop Sciences Research Center", "streetAddress": "4202 S. FIRST ST.", "city": "SAVOY", "state": "IL", "zipcode": "61822", "latitude": "40.05549", "longitude": "-88.2383034"}], "1479": [{"buildingName": "Carle Mills Cancer Center", "streetAddress": "509 W UNIVERSITY AVE", "city": "URBANA", "state": "IL", "zipcode": "61801", "latitude": "40.1160533", "longitude": "-88.2142458"}], "1485": [{"buildingName": "Solar Decathlon House", "streetAddress": "3605 S. RACE STREET", "city": "URBANA", "state": "IL", "zipcode": "61801", "latitude": "40.0728973", "longitude": "-88.2092789"}], "1494": [{"buildingName": "Center for Wounded Vets", "streetAddress": "908 W. NEVADA", "city": "URBANA", "state": "IL", "zipcode": "61801", "latitude": "40.1062773", "longitude": "-88.2203077"}], "1511": [{"buildingName": "PNCL", "streetAddress": "4900 S. RACE ST.", "city": "URBANA", "state": "IL", "zipcode": "61801", "latitude": "40.0568278", "longitude": "-88.2086847"}], "1531": [{"buildingName": "Technology Development and Fabrication Center IV", "streetAddress": "", "city": "", "state": "", "zipcode": "", "latitude": "", "longitude": ""}], "1552": [{"buildingName": "ISR Modular Classroom", "streetAddress": "", "city": "", "state": "", "zipcode": "", "latitude": "", "longitude": ""}], "2001": [{"buildingName": "Allerton Main House", "streetAddress": "MONTICELLO", "city": "MONTICELLO", "state": "IL", "zipcode": "61856", "latitude": "40.0278116", "longitude": "-88.5733979"}], "2002": [{"buildingName": "Allerton Gate House", "streetAddress": "3502 S. FIRST ST.", "city": "MONTICELLO", "state": "IL", "zipcode": "61856", "latitude": "40.1057647", "longitude": "-88.5584759"}], "2003": [{"buildingName": "Allerton House in the Woods", "streetAddress": "MONTICELLO", "city": "MONTICELLO", "state": "IL", "zipcode": "61856", "latitude": "40.0278116", "longitude": "-88.5733979"}], "2004": [{"buildingName": "Allerton Evergreen Lodge", "streetAddress": "MONTICELLO", "city": "MONTICELLO", "state": "IL", "zipcode": "61856", "latitude": "40.0278116", "longitude": "-88.5733979"}], "2008": [{"buildingName": "Allerton Tool House", "streetAddress": "MONTICELLO", "city": "MONTICELLO", "state": "IL", "zipcode": "61856", "latitude": "40.0278116", "longitude": "-88.5733979"}], "2010": [{"buildingName": "Allerton Visitor Center", "streetAddress": "MONTICELLO", "city": "MONTICELLO", "state": "IL", "zipcode": "61856", "latitude": "40.0278116", "longitude": "-88.5733979"}], "2027": [{"buildingName": "Allerton 4H Camp Office", "streetAddress": "MONTICELLO", "city": "MONTICELLO", "state": "IL", "zipcode": "61856", "latitude": "40.0278116", "longitude": "-88.5733979"}], "2105": [{"buildingName": "ICYT", "streetAddress": "2105-2100 S. OAK ST.", "city": "CHAMPAIGN", "state": "IL", "zipcode": "61820", "latitude": "40.08943", "longitude": "-88.240302"}], "2509": [{"buildingName": "M2", "streetAddress": "301 N. Neil ST", "city": "CHAMPAIGN", "state": "IL", "zipcode": "61821", "latitude": "40.1187948", "longitude": "-88.2442485"}], "8283": [{"buildingName": "Oak Chiller", "streetAddress": "1305 S. OAK STREET", "city": "CHAMPAIGN", "state": "IL", "zipcode": "61820", "latitude": "40.0981804", "longitude": "-88.241449"}], "9515": [{"buildingName": "Vet Med Harrison", "streetAddress": "", "city": "", "state": "", "zipcode": "", "latitude": "", "longitude": ""}], "9516": [{"buildingName": "Chicago Architecture Studio", "streetAddress": "", "city": "", "state": "", "zipcode": "", "latitude": "", "longitude": ""}], "9520": [{"buildingName": "UIF Wacker Dr Chicago", "streetAddress": "", "city": "", "state": "", "zipcode": "", "latitude": "", "longitude": ""}], "1277": [{"buildingName": "LL Nursery", "streetAddress": "3502 S. FIRST ST.", "city": "CHAMPAIGN", "state": "IL", "zipcode": "61820", "latitude": "40.0658976", "longitude": "-88.2383665"}], "1528": [{"buildingName": "African American Culture Center", "streetAddress": "", "city": "", "state": "", "zipcode": "", "latitude": "", "longitude": ""}]}}